{
    "links": {
        "self": "http://www.neowsapp.com/rest/v1/neo/3766340?api_key=iIulBulltgU6a56xZRHN4H3l9WmuAYTsLGpBGhQ2"
    },
    "id": "3766340",
    "neo_reference_id": "3766340",
    "name": "(2017 AQ4)",
    "designation": "2017 AQ4",
    "nasa_jpl_url": "http://ssd.jpl.nasa.gov/sbdb.cgi?sstr=3766340",
    "absolute_magnitude_h": 25.1,
    "estimated_diameter": {
        "kilometers": {
            "estimated_diameter_min": 0.0253837029,
            "estimated_diameter_max": 0.0567596853
        },
        "meters": {
            "estimated_diameter_min": 25.3837029364,
            "estimated_diameter_max": 56.7596852866
        },
        "miles": {
            "estimated_diameter_min": 0.0157726969,
            "estimated_diameter_max": 0.0352688224
        },
        "feet": {
            "estimated_diameter_min": 83.279867942,
            "estimated_diameter_max": 186.2194458756
        }
    },
    "is_potentially_hazardous_asteroid": false,
    "close_approach_data": [
        {
            "close_approach_date": "2017-01-02",
            "close_approach_date_full": "2017-Jan-02 10:00",
            "epoch_date_close_approach": 1483351200000,
            "relative_velocity": {
                "kilometers_per_second": "17.9041578249",
                "kilometers_per_hour": "64454.9681695306",
                "miles_per_hour": "40049.8106384508"
            },
            "miss_distance": {
                "astronomical": "0.0550551913",
                "lunar": "21.4164694157",
                "kilometers": "8236139.350922531",
                "miles": "5117699.6817756878"
            },
            "orbiting_body": "Earth"
        }
    ],
    "orbital_data": {
        "orbit_id": "3",
        "orbit_determination_date": "2017-04-06 08:21:09",
        "first_observation_date": "2017-01-03",
        "last_observation_date": "2017-01-06",
        "data_arc_in_days": 3,
        "observations_used": 26,
        "orbit_uncertainty": "9",
        "minimum_orbit_intersection": ".0550543",
        "jupiter_tisserand_invariant": "4.052",
        "epoch_osculation": "2457758.5",
        "eccentricity": ".4203386142660524",
        "semi_major_axis": "1.646091699928811",
        "inclination": "29.17606345242417",
        "ascending_node_longitude": "284.294151061242",
        "orbital_period": "771.3996979795277",
        "perihelion_distance": ".954175795825884",
        "perihelion_argument": "135.1491042317758",
        "aphelion_distance": "2.338007604031737",
        "perihelion_time": "2457720.566441634063",
        "mean_anomaly": "17.70298983458993",
        "mean_motion": ".4666841339748024",
        "equinox": "J2000",
        "orbit_class": {
            "orbit_class_type": "APO",
            "orbit_class_description": "Near-Earth asteroid orbits which cross the Earth’s orbit similar to that of 1862 Apollo",
            "orbit_class_range": "a (semi-major axis) > 1.0 AU; q (perihelion) < 1.017 AU"
        }
    },
    "is_sentry_object": false
}